{
  "type": "FeatureCollection",
  "features": [
    {
      "type": "Feature",
      "properties": {
        "norad_id": 66417,
        "name": "HULIANWANG DIGUI 13F",
        "group": "last-30-days",
        "lat": -36.96239002533489,
        "lon": 145.92484796946266,
        "alt_km": 825.3318364063052,
        "timestamp": "2025-12-06T20:37:54.811920+00:00",
        "meta_object_name": "HULIANWANG DIGUI 13F",
        "meta_object_id": "2025-258F",
        "meta_epoch": "2025-12-06T14:29:09.906432",
        "meta_mean_motion": 14.21933133,
        "meta_eccentricity": 0.00102248,
        "meta_inclination": 50.0001,
        "meta_ra_of_asc_node": 287.8136,
        "meta_arg_of_pericenter": 341.4358,
        "meta_mean_anomaly": 18.618,
        "meta_ephemeris_type": 0,
        "meta_classification_type": "U",
        "meta_norad_cat_id": 66417,
        "meta_element_set_no": 999,
        "meta_rev_at_epoch": 378,
        "meta_bstar": 0.00035322897,
        "meta_mean_motion_dot": 6.26e-06,
        "meta_mean_motion_ddot": 0,
        "tle_line1": "1 66417U 25258F   25340.60358688  .00000626  00000+0  35323-3 0  9996",
        "tle_line2": "2 66417  50.0001 287.8136 0010224 341.4358  18.6180 14.21933133  3786"
      },
      "geometry": {
        "type": "Point",
        "coordinates": [
          145.92484796946266,
          -36.96239002533489
        ]
      }
    },
    {
      "type": "Feature",
      "properties": {
        "norad_id": 66418,
        "name": "HULIANWANG DIGUI 13G",
        "group": "last-30-days",
        "lat": -48.43420323687891,
        "lon": 177.91425725080123,
        "alt_km": 819.1584519203143,
        "timestamp": "2025-12-06T20:37:54.811931+00:00",
        "meta_object_name": "HULIANWANG DIGUI 13G",
        "meta_object_id": "2025-258G",
        "meta_epoch": "2025-12-05T21:30:39.941568",
        "meta_mean_motion": 14.22784746,
        "meta_eccentricity": 0.00116654,
        "meta_inclination": 50.0022,
        "meta_ra_of_asc_node": 290.7431,
        "meta_arg_of_pericenter": 336.1209,
        "meta_mean_anomaly": 23.9161,
        "meta_ephemeris_type": 0,
        "meta_classification_type": "U",
        "meta_norad_cat_id": 66418,
        "meta_element_set_no": 999,
        "meta_rev_at_epoch": 368,
        "meta_bstar": 0.00031844208,
        "meta_mean_motion_dot": 5.6e-06,
        "meta_mean_motion_ddot": 0,
        "tle_line1": "1 66418U 25258G   25339.89629562  .00000560  00000+0  31844-3 0  9999",
        "tle_line2": "2 66418  50.0022 290.7431 0011665 336.1209  23.9161 14.22784746  3689"
      },
      "geometry": {
        "type": "Point",
        "coordinates": [
          177.91425725080123,
          -48.43420323687891
        ]
      }
    },
    {
      "type": "Feature",
      "properties": {
        "norad_id": 66419,
        "name": "HULIANWANG DIGUI 13H",
        "group": "last-30-days",
        "lat": -49.94557391370333,
        "lon": -166.30928843654712,
        "alt_km": 815.7424762677383,
        "timestamp": "2025-12-06T20:37:54.811941+00:00",
        "meta_object_name": "HULIANWANG DIGUI 13H",
        "meta_object_id": "2025-258H",
        "meta_epoch": "2025-12-05T14:43:51.252960",
        "meta_mean_motion": 14.23328519,
        "meta_eccentricity": 0.00120585,
        "meta_inclination": 50.0017,
        "meta_ra_of_asc_node": 291.9103,
        "meta_arg_of_pericenter": 334.7106,
        "meta_mean_anomaly": 25.3215,
        "meta_ephemeris_type": 0,
        "meta_classification_type": "U",
        "meta_norad_cat_id": 66419,
        "meta_element_set_no": 999,
        "meta_rev_at_epoch": 364,
        "meta_bstar": 0.00013377596,
        "meta_mean_motion_dot": 1.46e-06,
        "meta_mean_motion_ddot": 0,
        "tle_line1": "1 66419U 25258H   25339.61378765  .00000146  00000+0  13378-3 0  9998",
        "tle_line2": "2 66419  50.0017 291.9103 0012058 334.7106  25.3215 14.23328519  3645"
      },
      "geometry": {
        "type": "Point",
        "coordinates": [
          -166.30928843654712,
          -49.94557391370333
        ]
      }
    },
    {
      "type": "Feature",
      "properties": {
        "norad_id": 66420,
        "name": "HULIANWANG DIGUI 13J",
        "group": "last-30-days",
        "lat": -49.905257383558606,
        "lon": -158.64878371299378,
        "alt_km": 817.1913021211822,
        "timestamp": "2025-12-06T20:37:54.811953+00:00",
        "meta_object_name": "HULIANWANG DIGUI 13J",
        "meta_object_id": "2025-258J",
        "meta_epoch": "2025-12-05T23:07:39.042912",
        "meta_mean_motion": 14.22956918,
        "meta_eccentricity": 0.00133221,
        "meta_inclination": 50.0158,
        "meta_ra_of_asc_node": 290.4806,
        "meta_arg_of_pericenter": 343.9613,
        "meta_mean_anomaly": 16.0876,
        "meta_ephemeris_type": 0,
        "meta_classification_type": "U",
        "meta_norad_cat_id": 66420,
        "meta_element_set_no": 999,
        "meta_rev_at_epoch": 368,
        "meta_bstar": 0.00030678625,
        "meta_mean_motion_dot": 5.36e-06,
        "meta_mean_motion_ddot": 0,
        "tle_line1": "1 66420U 25258J   25339.96364633  .00000536  00000+0  30679-3 0  9993",
        "tle_line2": "2 66420  50.0158 290.4806 0013322 343.9613  16.0876 14.22956918  3680"
      },
      "geometry": {
        "type": "Point",
        "coordinates": [
          -158.64878371299378,
          -49.905257383558606
        ]
      }
    },
    {
      "type": "Feature",
      "properties": {
        "norad_id": 66421,
        "name": "CZ-12 R/B",
        "group": "last-30-days",
        "lat": 23.332370399325388,
        "lon": 82.22631567921924,
        "alt_km": 739.255531881251,
        "timestamp": "2025-12-06T20:37:54.811967+00:00",
        "meta_object_name": "CZ-12 R/B",
        "meta_object_id": "2025-258K",
        "meta_epoch": "2025-12-06T14:57:02.602656",
        "meta_mean_motion": 14.42319758,
        "meta_eccentricity": 0.0064526,
        "meta_inclination": 49.9961,
        "meta_ra_of_asc_node": 284.4905,
        "meta_arg_of_pericenter": 227.4206,
        "meta_mean_anomaly": 132.1259,
        "meta_ephemeris_type": 0,
        "meta_classification_type": "U",
        "meta_norad_cat_id": 66421,
        "meta_element_set_no": 999,
        "meta_rev_at_epoch": 383,
        "meta_bstar": 0.00011927224,
        "meta_mean_motion_dot": 2.36e-06,
        "meta_mean_motion_ddot": 0,
        "tle_line1": "1 66421U 25258K   25340.62294679  .00000236  00000+0  11927-3 0  9993",
        "tle_line2": "2 66421  49.9961 284.4905 0064526 227.4206 132.1259 14.42319758  3838"
      },
      "geometry": {
        "type": "Point",
        "coordinates": [
          82.22631567921924,
          23.332370399325388
        ]
      }
    },
    {
      "type": "Feature",
      "properties": {
        "norad_id": 66422,
        "name": "STARLINK-35617",
        "group": "last-30-days",
        "lat": 32.03507726402845,
        "lon": 124.17297886038425,
        "alt_km": 439.32045153374474,
        "timestamp": "2025-12-06T20:37:54.811978+00:00",
        "meta_object_name": "STARLINK-35617",
        "meta_object_id": "2025-259A",
        "meta_epoch": "2025-12-06T14:00:01.999872",
        "meta_mean_motion": 15.40737163,
        "meta_eccentricity": 0.00010662,
        "meta_inclination": 43.0006,
        "meta_ra_of_asc_node": 83.5853,
        "meta_arg_of_pericenter": 297.2915,
        "meta_mean_anomaly": 19.4746,
        "meta_ephemeris_type": 0,
        "meta_classification_type": "U",
        "meta_norad_cat_id": 66422,
        "meta_element_set_no": 999,
        "meta_rev_at_epoch": 529,
        "meta_bstar": -0.0032340225,
        "meta_mean_motion_dot": -0.00133226,
        "meta_mean_motion_ddot": 0,
        "tle_line1": "1 66422U 25259A   25340.58335648 -.00133226  00000+0 -32340-2 0  9991",
        "tle_line2": "2 66422  43.0006  83.5853 0001066 297.2915  19.4746 15.40737163  5299"
      },
      "geometry": {
        "type": "Point",
        "coordinates": [
          124.17297886038425,
          32.03507726402845
        ]
      }
    },
    {
      "type": "Feature",
      "properties": {
        "norad_id": 66423,
        "name": "STARLINK-35618",
        "group": "last-30-days",
        "lat": 37.60656264610829,
        "lon": 137.71347226737035,
        "alt_km": 438.84850486252435,
        "timestamp": "2025-12-06T20:37:54.811988+00:00",
        "meta_object_name": "STARLINK-35618",
        "meta_object_id": "2025-259B",
        "meta_epoch": "2025-12-06T14:00:01.999872",
        "meta_mean_motion": 15.40733112,
        "meta_eccentricity": 0.00011875,
        "meta_inclination": 43.0005,
        "meta_ra_of_asc_node": 83.5548,
        "meta_arg_of_pericenter": 267.4855,
        "meta_mean_anomaly": 61.7047,
        "meta_ephemeris_type": 0,
        "meta_classification_type": "U",
        "meta_norad_cat_id": 66423,
        "meta_element_set_no": 999,
        "meta_rev_at_epoch": 529,
        "meta_bstar": -0.0023969645,
        "meta_mean_motion_dot": -0.00099246,
        "meta_mean_motion_ddot": 0,
        "tle_line1": "1 66423U 25259B   25340.58335648 -.00099246  00000+0 -23970-2 0  9994",
        "tle_line2": "2 66423  43.0005  83.5548 0001187 267.4855  61.7047 15.40733112  5290"
      },
      "geometry": {
        "type": "Point",
        "coordinates": [
          137.71347226737035,
          37.60656264610829
        ]
      }
    }
  ]
}